TOMORROW-S2             
1 60485U 24149T   26068.75188364  .00008133  00000+0  27683-3 0  9990
2 60485  97.3857 150.0385 0001648 234.3331 125.7757 15.30674935 86869
STARLINK-35636          
1 66160U 25240Q   26068.28988450  .00028418  00000+0  96814-3 0  9991
2 66160  53.1594  64.9254 0001259  85.3550 274.7594 15.30193151 21922
