[{"OBJECT_NAME":"TOMORROW-S2","OBJECT_ID":"2024-149T","EPOCH":"2026-03-09T18:02:42.746496","MEAN_MOTION":15.30674935,"ECCENTRICITY":0.0001648,"INCLINATION":97.3857,"RA_OF_ASC_NODE":150.0385,"ARG_OF_PERICENTER":234.3331,"MEAN_ANOMALY":125.7757,"EPHEMERIS_TYPE":0,"CLASSIFICATION_TYPE":"U","NORAD_CAT_ID":60485,"ELEMENT_SET_NO":999,"REV_AT_EPOCH":8686,"BSTAR":0.00027683033,"MEAN_MOTION_DOT":8.133e-5,"MEAN_MOTION_DDOT":0},{"OBJECT_NAME":"STARLINK-35636","OBJECT_ID":"2025-240Q","EPOCH":"2026-03-09T06:57:26.020800","MEAN_MOTION":15.30193151,"ECCENTRICITY":0.00012597,"INCLINATION":53.1594,"RA_OF_ASC_NODE":64.9254,"ARG_OF_PERICENTER":85.355,"MEAN_ANOMALY":274.7594,"EPHEMERIS_TYPE":0,"CLASSIFICATION_TYPE":"U","NORAD_CAT_ID":66160,"ELEMENT_SET_NO":999,"REV_AT_EPOCH":2192,"BSTAR":0.00096814217,"MEAN_MOTION_DOT":0.00028418,"MEAN_MOTION_DDOT":0}]
